SL-16 R/B               
1 19120U 88039B   17189.66031074 -.00000027  00000-0  97950-5 0  9999
2 19120  71.0153 279.5500 0021154 160.8122 199.3804 14.19170725509435
COSMOS 1953             
1 19210U 88050A   17189.89829630  .00000162  00000-0  92931-5 0  9993
2 19210  82.5157  12.3362 0013261 178.5705 181.5562 15.05281288559979
SL-8 R/B                
1 19257U 88053B   17189.92086125 -.00000074  00000-0 -15937-4 0  9999
2 19257  74.0465 176.5864 0019307  60.4031 319.5222 14.37361186521612
COSMOS 1975             
1 19573U 88093A   17189.89097066 -.00000013  00000-0 -29909-5 0  9994
2 19573  82.5209 324.4795 0013418 219.5316 140.4933 15.04183467541936
SL-14 R/B               
1 19574U 88093B   17189.92813840  .00000064  00000-0  48672-5 0  9997
2 19574  82.5332 124.7469 0022854  47.7697  17.4293 14.83222597531586
SL-16 R/B               
1 19650U 88102B   17189.84114906  .00000080  00000-0  64953-4 0  9998
2 19650  71.0009 329.5627 0013354 158.0633 202.1064 14.15760937479059
INTERCOSMOS 24          
1 20261U 89080A   17189.92897263  .00000027  00000-0 -26822-6 0  9994
2 20261  82.5926 355.8630 1204809  46.6483 322.8844 12.55886710269102
SL-14 R/B               
1 20262U 89080C   17189.65151703  .00000066  00000-0  16496-4 0  9993
2 20262  82.5929  42.3422 1236908 207.5999 145.3834 12.48864708264824
DELTA 1 R/B             
1 20323U 89089B   17189.81595293  .00000015  00000-0  13148-4 0  9999
2 20323  97.1103 132.2577 0072314  13.7477 346.5666 14.48202952457858
DELTA 2 R/B(1)          
1 20453U 90008B   17189.93040335  .00001104  00000-0  66181-4 0  9996
2 20453  35.6258 102.5558 0289372 348.8572  10.5833 14.83172533451433
COSMOS 2058             
1 20465U 90010A   17189.73430551  .00000190  00000-0  13998-4 0  9995
2 20465  82.4885 227.1392 0014603 217.3576 142.6633 14.97522971488568
SL-14 R/B               
1 20466U 90010B   17189.92266741  .00000048  00000-0  32280-5 0  9993
2 20466  82.5030 352.2661 0019005 266.9321  92.9718 14.81284666459658
SL-14 R/B               
1 20511U 90018B   17189.82210316  .00000082  00000-0  77228-5 0  9997
2 20511  82.5245 293.9578 0018545  45.9096  71.0296 14.79943626454162
HST                     
1 20580U 90037B   17189.89679399  .00000350  00000-0  10505-4 0  9993
2 20580  28.4687 224.0669 0002951  50.3708 313.6762 15.08794184293482
SL-16 R/B               
1 20625U 90046B   17189.91645712 -.00000157  00000-0 -57017-4 0  9994
2 20625  71.0007 103.5354 0012074  70.4444 289.7981 14.14620782400654
COSMOS 2084             
1 20663U 90055A   17189.68071353  .00000004  00000-0  18337-4 0  9995
2 20663  62.7913 156.3900 0140578  92.1175 269.6023 14.91590394463007
SL-6 R/B(2)             
1 20666U 90055D   17189.93838539  .00000056  00000-0  22728-4 0  9999
2 20666  62.7846  74.2634 0130089 111.3110 250.1929 14.91941029464956
SL-8 R/B                
1 20775U 90078B   17189.91635301  .00000724  00000-0  35692-4 0  9991
2 20775  82.9281  30.3851 0586872 275.3319  78.1212 14.30694389351882
SL-8 R/B                
1 21088U 91006B   17189.94002995  .00000099  00000-0  84633-4 0  9995
2 21088  82.9418   4.0642 0021155 258.7644 209.8449 13.77060450328326
OKEAN-3                 
1 21397U 91039A   17189.84635390  .00000215  00000-0  18352-4 0  9999
2 21397  82.5230 117.8441 0018361 159.9711 200.2234 14.92497066391950
COSMOS 2151             
1 21422U 91042A   17189.72988914  .00000142  00000-0  11496-4 0  9993
2 21422  82.4995 225.9466 0013264 217.4240 142.6057 14.91831692411713
SL-14 R/B               
1 21423U 91042B   17189.83587627  .00000033  00000-0  12923-5 0  9998
2 21423  82.4953 301.1808 0017759 174.7153 185.4251 14.79695610405781
ERS-1                   
1 21574U 91050A   17189.84131403  .00000024  00000-0  22488-4 0  9998
2 21574  98.4607 136.6557 0031748 249.9571 109.8197 14.37591910360697
ARIANE 40 R/B           
1 21610U 91050F   17189.78246485  .00000001  00000-0  14341-4 0  9993
2 21610  98.6032 246.4727 0002308 220.5776 250.8750 14.40799967363223
INTERCOSMOS 25          
1 21819U 91086A   17189.88493519  .00000615  00000-0  11391-3 0  9998
2 21819  82.5565  49.9715 1525054  40.7537 329.8075 12.04527355114876
SL-14 R/B               
1 21820U 91086B   17189.72331016  .00000013  00000-0  16073-5 0  9992
2 21820  82.5633 105.7828 1576510 229.9192 115.2904 11.93311629109358
SL-8 R/B                
1 21876U 92008B   17189.86474726  .00000034  00000-0  19803-4 0  9995
2 21876  82.9278 101.1072 0034341 336.0912  88.4240 13.75606998274365
SL-8 R/B                
1 21938U 92020B   17189.96746660  .00000076  00000-0  62523-4 0  9991
2 21938  82.9304 344.2892 0030312 129.8296 343.1439 13.75256553265988
SL-16 R/B               
1 22220U 92076B   17189.94416521 -.00000140  00000-0 -46052-4 0  9998
2 22220  71.0000  13.4525 0014808 243.9082 220.4410 14.16415150273527
SL-16 R/B               
1 22285U 92093B   17189.93745776 -.00000301  00000-0 -13071-3 0  9997
2 22285  71.0208 166.6545 0001823  98.9093 261.2236 14.15012540265338
COSMOS 2228             
1 22286U 92094A   17189.90827202  .00000139  00000-0  12471-4 0  9992
2 22286  82.5210 353.6194 0021761  52.4209 307.8980 14.87675297304659
SL-16 R/B               
1 22566U 93016B   17189.91014672  .00000048  00000-0  49296-4 0  9992
2 22566  71.0065  21.3281 0008266 103.2986 256.9059 14.14951590254332
COSMOS 2242             
1 22626U 93024A   17189.92736560  .00000167  00000-0  15529-4 0  9990
2 22626  82.5210  21.3241 0020292  51.7712 308.5328 14.87673253309084
SL-16 R/B               
1 22803U 93059B   17189.40683438 -.00000175  00000-0 -63277-4 0  9997
2 22803  70.9888 204.7230 0017772 345.7710  14.2911 14.16775298231033
ARIANE 40 R/B           
1 22830U 93061H   17189.74083786 -.00000044  00000-0  95291-6 0  9994
2 22830  98.8837 205.6371 0010052 220.8846 191.3840 14.31411531241076
COSMOS 2278             
1 23087U 94023A   17189.78337673 -.00000173  00000-0 -66525-4 0  9999
2 23087  71.0555 313.8407 0009066 198.1722 161.9077 14.13753062197541
SL-16 R/B               
1 23088U 94023B   17189.55676674 -.00000289  00000-0 -12565-3 0  9994
2 23088  70.9988 237.2044 0001471  26.3860 333.7337 14.14655571198561
SL-16 R/B               
1 23343U 94074B   17189.95523946 -.00000024  00000-0  41471-5 0  9997
2 23343  98.1513 227.2564 0007094  14.7487  38.6250 14.76702252219836
SL-16 R/B               
1 23405U 94077B   17189.90634696  .00000259  00000-0  15807-3 0  9990
2 23405  70.9821 169.7330 0004693 280.3591  79.7002 14.15198748168336
ERS-2                   
1 23560U 95021A   17189.94525180  .00000936  00000-0  46519-4 0  9990
2 23560  98.5561 185.2109 0002719 214.7526 145.3529 15.20721957178660
ARIANE 40+ R/B          
1 23561U 95021B   17189.91139630  .00000007  00000-0  17753-4 0  9996
2 23561  98.7929 191.6037 0006715 185.0369 233.9600 14.37820047164157
SL-16 R/B               
1 23705U 95058B   17189.86903375 -.00000105  00000-0 -29611-4 0  9992
2 23705  71.0216 343.5448 0014770 265.7848  94.1587 14.15103114120251
SL-16 R/B               
1 24298U 96051B   17189.89285246 -.00000077  00000-0 -15129-4 0  9994
2 24298  70.8492  16.3632 0016041 160.7711 199.4018 14.12498190 74623
ORBVIEW 2 (SEASTAR)     
1 24883U 97037A   17189.89660625  .00000032  00000-0  27335-4 0  9998
2 24883  98.5432 298.2603 0003235  60.5885 299.5622 14.33397062 54768
SL-16 R/B               
1 25400U 98043G   17189.83449306 -.00000029  00000-0  54975-5 0  9995
2 25400  98.4896 137.3654 0008900 228.1791 131.8630 14.25413296987938
SL-16 R/B               
1 25407U 98045B   17189.91258324  .00000062  00000-0  55604-4 0  9996
2 25407  71.0122 355.7759 0007860 189.7369 170.3603 14.15763801978985
ISS (ZARYA)             
1 25544U 98067A   17189.79587139  .00001599  00000-0  31403-4 0  9994
2 25544  51.6428 290.6171 0005389  14.5296 127.8813 15.54138789 65110
SL-8 R/B                
1 25723U 99022C   17189.70170938  .00004122  00000-0  68537-4 0  9994
2 25723  48.4172  52.6732 0009948 143.2640 216.8988 15.54308348  9521
CZ-4B R/B               
1 25732U 99025C   17189.91800728 -.00000026  00000-0  97133-5 0  9992
2 25732  98.9917 191.9281 0037979  31.0194  27.4436 14.17633139939610
OKEAN-O                 
1 25860U 99039A   17189.96374737  .00000030  00000-0  11864-4 0  9990
2 25860  98.1872 175.1372 0001910  83.2950 276.8477 14.76481710966946
SL-16 R/B               
1 25861U 99039B   17189.89532521 -.00000009  00000-0  62110-5 0  9998
2 25861  98.1064 161.3544 0016089  16.7722  35.6026 14.78416837968874
TERRA                   
1 25994U 99068A   17189.76714761 -.00001421  00000-0 -30564-3 0  9997
2 25994  98.2098 264.5058 0001181  94.8805 265.2541 14.57095727933818
ENVISAT                 
1 27386U 02009A   17189.88849592 -.00000027  00000-0  46264-5 0  9993
2 27386  98.2296 234.2595 0001146  91.5631 268.5679 14.37898249804191
IDEFIX & ARIANE 42P R/B 
1 27422U 02021B   17189.93165310 -.00000026  00000-0  56020-5 0  9993
2 27422  98.2299 189.0079 0012499 166.1500 194.0028 14.29255215791676
AQUA                    
1 27424U 02022A   17189.93728007  .00000055  00000-0  22363-4 0  9997
2 27424  98.2052 130.9047 0002803  63.1006   8.5494 14.57113028807399
CZ-4B R/B               
1 27432U 02024C   17189.96538770 -.00000028  00000-0  93538-5 0  9991
2 27432  98.9889 163.6585 0050023 331.9264  94.9377 14.14045554781797
MIDORI II (ADEOS-II)    
1 27597U 02056A   17189.92404186  .00000019  00000-0  24867-4 0  9994
2 27597  98.3706 158.5639 0000318  80.1483 279.9734 14.27292397758522
H-2A R/B                
1 27601U 02056E   17189.79619948  .00000031  00000-0  26758-4 0  9994
2 27601  98.3752 256.8455 0071285 230.7598 236.7136 14.31786773760901
CZ-4B R/B               
1 28059U 03049C   17189.73541483 -.00000032  00000-0  41514-5 0  9997
2 28059  98.5586  76.1088 0050089 180.2721 260.6142 14.52491220726815
